{"type": "FeatureCollection", "features": [ {"type": "Feature", "properties": {"norad_id": 32440, "name": "FENGYUN 1C DEB", "group": "fengyun-1c-debris", "lat": 38.654926004831474, "lon": 23.438266607100033, "alt_km": 827.0677693646494, "timestamp": "2025-12-06T09:34:17.200181+00:00", "meta": {"OBJECT_NAME": "FENGYUN 1C DEB", "OBJECT_ID": "1999-025DBC", "EPOCH": "2025-12-05T08:12:44.739072", "MEAN_MOTION": 13.61195229, "ECCENTRICITY": 0.03213757, "INCLINATION": 99.1546, "RA_OF_ASC_NODE": 195.0359, "ARG_OF_PERICENTER": 110.0631, "MEAN_ANOMALY": 253.5405, "EPHEMERIS_TYPE": 0, "CLASSIFICATION_TYPE": "U", "NORAD_CAT_ID": 32440, "ELEMENT_SET_NO": 999, "REV_AT_EPOCH": 60185, "BSTAR": 0.0046022853, "MEAN_MOTION_DOT": 4.901e-05, "MEAN_MOTION_DDOT": 0}, "tle": {"line1": "1 32440U 99025DBC 25339.34218448  .00004901  00000+0  46023-2 0  9994", "line2": "2 32440  99.1546 195.0359 0321375 110.0631 253.5405 13.61195229601857"}}, "geometry": {"type": "Point", "coordinates": [23.438266607100033, 38.654926004831474]}}, {"type": "Feature", "properties": {"norad_id": 32447, "name": "FENGYUN 1C DEB", "group": "fengyun-1c-debris", "lat": -48.389994402356635, "lon": 6.917683625791558, "alt_km": 931.7737494984513, "timestamp": "2025-12-06T09:34:17.200191+00:00", "meta": {"OBJECT_NAME": "FENGYUN 1C DEB", "OBJECT_ID": "1999-025DBK", "EPOCH": "2025-12-04T19:57:48.676032", "MEAN_MOTION": 13.96007618, "ECCENTRICITY": 0.00801771, "INCLINATION": 98.9313, "RA_OF_ASC_NODE": 355.1998, "ARG_OF_PERICENTER": 62.9072, "MEAN_ANOMALY": 298.0242, "EPHEMERIS_TYPE": 0, "CLASSIFICATION_TYPE": "U", "NORAD_CAT_ID": 32447, "ELEMENT_SET_NO": 999, "REV_AT_EPOCH": 67768, "BSTAR": 0.00045058659, "MEAN_MOTION_DOT": 5.92e-06, "MEAN_MOTION_DDOT": 0}, "tle": {"line1": "1 32447U 99025DBK 25338.83181338  .00000592  00000+0  45059-3 0  9992", "line2": "2 32447  98.9313 355.1998 0080177  62.9072 298.0242 13.96007618677686"}}, "geometry": {"type": "Point", "coordinates": [6.917683625791558, -48.389994402356635]}}, {"type": "Feature", "properties": {"norad_id": 32451, "name": "FENGYUN 1C DEB", "group": "fengyun-1c-debris", "lat": -10.82747660888446, "lon": 137.83517379735937, "alt_km": 817.5086191675764, "timestamp": "2025-12-06T09:34:17.200201+00:00", "meta": {"OBJECT_NAME": "FENGYUN 1C DEB", "OBJECT_ID": "1999-025DBP", "EPOCH": "2025-12-04T18:32:35.107584", "MEAN_MOTION": 13.86510198, "ECCENTRICITY": 0.01858286, "INCLINATION": 99.9695, "RA_OF_ASC_NODE": 318.0312, "ARG_OF_PERICENTER": 215.954, "MEAN_ANOMALY": 142.8994, "EPHEMERIS_TYPE": 0, "CLASSIFICATION_TYPE": "U", "NORAD_CAT_ID": 32451, "ELEMENT_SET_NO": 999, "REV_AT_EPOCH": 61654, "BSTAR": 0.0037745112, "MEAN_MOTION_DOT": 4.97e-05, "MEAN_MOTION_DDOT": 0}, "tle": {"line1": "1 32451U 99025DBP 25338.77262856  .00004970  00000+0  37745-2 0  9991", "line2": "2 32451  99.9695 318.0312 0185828 215.9540 142.8994 13.86510198616541"}}, "geometry": {"type": "Point", "coordinates": [137.83517379735937, -10.82747660888446]}}, {"type": "Feature", "properties": {"norad_id": 32453, "name": "FENGYUN 1C DEB", "group": "fengyun-1c-debris", "lat": 68.51938847377495, "lon": 94.73495871554115, "alt_km": 908.3066506284295, "timestamp": "2025-12-06T09:34:17.200212+00:00", "meta": {"OBJECT_NAME": "FENGYUN 1C DEB", "OBJECT_ID": "1999-025DBR", "EPOCH": "2025-11-28T10:57:12.038976", "MEAN_MOTION": 14.02200263, "ECCENTRICITY": 0.00971069, "INCLINATION": 99.3715, "RA_OF_ASC_NODE": 241.7597, "ARG_OF_PERICENTER": 245.8452, "MEAN_ANOMALY": 113.2535, "EPHEMERIS_TYPE": 0, "CLASSIFICATION_TYPE": "U", "NORAD_CAT_ID": 32453, "ELEMENT_SET_NO": 999, "REV_AT_EPOCH": 93228, "BSTAR": 0.00096884375, "MEAN_MOTION_DOT": 1.498e-05, "MEAN_MOTION_DDOT": 0}, "tle": {"line1": "1 32453U 99025DBR 25332.45638934  .00001498  00000+0  96884-3 0  9998", "line2": "2 32453  99.3715 241.7597 0097106 245.8452 113.2535 14.02200263932285"}}, "geometry": {"type": "Point", "coordinates": [94.73495871554115, 68.51938847377495]}}, {"type": "Feature", "properties": {"norad_id": 32455, "name": "FENGYUN 1C DEB", "group": "fengyun-1c-debris", "lat": 35.131903675390326, "lon": 162.4254495777782, "alt_km": 1014.7772146684492, "timestamp": "2025-12-06T09:34:17.200226+00:00", "meta": {"OBJECT_NAME": "FENGYUN 1C DEB", "OBJECT_ID": "1999-025DBT", "EPOCH": "2025-11-30T08:31:26.630112", "MEAN_MOTION": 13.92295541, "ECCENTRICITY": 0.02377178, "INCLINATION": 101.7332, "RA_OF_ASC_NODE": 163.1966, "ARG_OF_PERICENTER": 176.0844, "MEAN_ANOMALY": 184.2238, "EPHEMERIS_TYPE": 0, "CLASSIFICATION_TYPE": "U", "NORAD_CAT_ID": 32455, "ELEMENT_SET_NO": 999, "REV_AT_EPOCH": 64243, "BSTAR": 0.0029260204, "MEAN_MOTION_DOT": 4.672e-05, "MEAN_MOTION_DDOT": 0}, "tle": {"line1": "1 32455U 99025DBT 25334.35516933  .00004672  00000+0  29260-2 0  9995", "line2": "2 32455 101.7332 163.1966 0237717 176.0844 184.2238 13.92295541642435"}}, "geometry": {"type": "Point", "coordinates": [162.4254495777782, 35.131903675390326]}}, {"type": "Feature", "properties": {"norad_id": 32456, "name": "FENGYUN 1C DEB", "group": "fengyun-1c-debris", "lat": 56.53703397854116, "lon": -39.76498177356764, "alt_km": 1242.1301790453253, "timestamp": "2025-12-06T09:34:17.200236+00:00", "meta": {"OBJECT_NAME": "FENGYUN 1C DEB", "OBJECT_ID": "1999-025DBU", "EPOCH": "2025-11-28T15:45:38.634624", "MEAN_MOTION": 13.3556135, "ECCENTRICITY": 0.03790377, "INCLINATION": 103.6671, "RA_OF_ASC_NODE": 108.2999, "ARG_OF_PERICENTER": 253.9297, "MEAN_ANOMALY": 101.9772, "EPHEMERIS_TYPE": 0, "CLASSIFICATION_TYPE": "U", "NORAD_CAT_ID": 32456, "ELEMENT_SET_NO": 999, "REV_AT_EPOCH": 60428, "BSTAR": 0.0020707074, "MEAN_MOTION_DOT": 1.513e-05, "MEAN_MOTION_DDOT": 0}, "tle": {"line1": "1 32456U 99025DBU 25332.65669716  .00001513  00000+0  20707-2 0  9993", "line2": "2 32456 103.6671 108.2999 0379037 253.9297 101.9772 13.35561350604289"}}, "geometry": {"type": "Point", "coordinates": [-39.76498177356764, 56.53703397854116]}}, {"type": "Feature", "properties": {"norad_id": 32458, "name": "FENGYUN 1C DEB", "group": "fengyun-1c-debris", "lat": 28.041094592280054, "lon": -175.44539018773253, "alt_km": 698.5236556070713, "timestamp": "2025-12-06T09:34:17.200246+00:00", "meta": {"OBJECT_NAME": "FENGYUN 1C DEB", "OBJECT_ID": "1999-025DBW", "EPOCH": "2025-12-04T07:36:40.919328", "MEAN_MOTION": 14.62058524, "ECCENTRICITY": 0.004081, "INCLINATION": 99.0463, "RA_OF_ASC_NODE": 357.4098, "ARG_OF_PERICENTER": 39.6877, "MEAN_ANOMALY": 320.7295, "EPHEMERIS_TYPE": 0, "CLASSIFICATION_TYPE": "U", "NORAD_CAT_ID": 32458, "ELEMENT_SET_NO": 999, "REV_AT_EPOCH": 67666, "BSTAR": 0.0039607, "MEAN_MOTION_DOT": 0.00020121, "MEAN_MOTION_DDOT": 0}, "tle": {"line1": "1 32458U 99025DBW 25338.31714027  .00020121  00000+0  39607-2 0  9995", "line2": "2 32458  99.0463 357.4098 0040810  39.6877 320.7295 14.62058524676660"}}, "geometry": {"type": "Point", "coordinates": [-175.44539018773253, 28.041094592280054]}}, {"type": "Feature", "properties": {"norad_id": 32459, "name": "FENGYUN 1C DEB", "group": "fengyun-1c-debris", "lat": -54.44292248836106, "lon": 6.579219265638285, "alt_km": 777.4745487103564, "timestamp": "2025-12-06T09:34:17.200256+00:00", "meta": {"OBJECT_NAME": "FENGYUN 1C DEB", "OBJECT_ID": "1999-025DBX", "EPOCH": "2025-12-05T18:51:11.719584", "MEAN_MOTION": 14.4276096, "ECCENTRICITY": 0.02129464, "INCLINATION": 98.3033, "RA_OF_ASC_NODE": 354.1925, "ARG_OF_PERICENTER": 207.4312, "MEAN_ANOMALY": 151.5508, "EPHEMERIS_TYPE": 0, "CLASSIFICATION_TYPE": "U", "NORAD_CAT_ID": 32459, "ELEMENT_SET_NO": 999, "REV_AT_EPOCH": 94450, "BSTAR": 0.0010768753, "MEAN_MOTION_DOT": 4.669e-05, "MEAN_MOTION_DDOT": 0}, "tle": {"line1": "1 32459U 99025DBX 25339.78555231  .00004669  00000+0  10769-2 0  9995", "line2": "2 32459  98.3033 354.1925 0212946 207.4312 151.5508 14.42760960944509"}}, "geometry": {"type": "Point", "coordinates": [6.579219265638285, -54.44292248836106]}}, {"type": "Feature", "properties": {"norad_id": 32460, "name": "FENGYUN 1C DEB", "group": "fengyun-1c-debris", "lat": 59.793450046977455, "lon": -39.544168626432594, "alt_km": 799.2585484119727, "timestamp": "2025-12-06T09:34:17.200267+00:00", "meta": {"OBJECT_NAME": "FENGYUN 1C DEB", "OBJECT_ID": "1999-025DBY", "EPOCH": "2025-12-05T15:43:13.910304", "MEAN_MOTION": 13.89535553, "ECCENTRICITY": 0.01852118, "INCLINATION": 98.0202, "RA_OF_ASC_NODE": 125.7992, "ARG_OF_PERICENTER": 144.0505, "MEAN_ANOMALY": 217.3283, "EPHEMERIS_TYPE": 0, "CLASSIFICATION_TYPE": "U", "NORAD_CAT_ID": 32460, "ELEMENT_SET_NO": 999, "REV_AT_EPOCH": 65155, "BSTAR": 0.0019996023, "MEAN_MOTION_DOT": 2.773e-05, "MEAN_MOTION_DDOT": 0}, "tle": {"line1": "1 32460U 99025DBY 25339.65502211  .00002773  00000+0  19996-2 0  9998", "line2": "2 32460  98.0202 125.7992 0185211 144.0505 217.3283 13.89535553651555"}}, "geometry": {"type": "Point", "coordinates": [-39.544168626432594, 59.793450046977455]}}, {"type": "Feature", "properties": {"norad_id": 32461, "name": "FENGYUN 1C DEB", "group": "fengyun-1c-debris", "lat": -63.84575227812086, "lon": -0.9837267186464989, "alt_km": 1054.2931840547935, "timestamp": "2025-12-06T09:34:17.200277+00:00", "meta": {"OBJECT_NAME": "FENGYUN 1C DEB", "OBJECT_ID": "1999-025DBZ", "EPOCH": "2025-12-05T13:18:20.356992", "MEAN_MOTION": 13.72806417, "ECCENTRICITY": 0.02319456, "INCLINATION": 98.3353, "RA_OF_ASC_NODE": 195.6501, "ARG_OF_PERICENTER": 136.3962, "MEAN_ANOMALY": 255.2942, "EPHEMERIS_TYPE": 0, "CLASSIFICATION_TYPE": "U", "NORAD_CAT_ID": 32461, "ELEMENT_SET_NO": 999, "REV_AT_EPOCH": 67196, "BSTAR": 0.0016648898, "MEAN_MOTION_DOT": 1.824e-05, "MEAN_MOTION_DDOT": 0}, "tle": {"line1": "1 32461U 99025DBZ 25339.55440228  .00001824  00000+0  16649-2 0  9995", "line2": "2 32461  98.3353 195.6501 0231945 136.3962 255.2942 13.72806417671967"}}, "geometry": {"type": "Point", "coordinates": [-0.9837267186464989, -63.84575227812086]}}]}